MEAN_MOTION;ECCENTRICITY;INCLINATION;RA_OF_ASC_NODE;ARG_OF_PERICENTER;MEAN_ANOMALY;BSTAR;MEAN_MOTION_DOT;MEAN_MOTION_DDOT;TYPE
14.71287459;0.0003695;69.9684;240.1525;133.4161;226.7291;5.3349E-5;2.57E-6;0;Orbcomm
14.71287961;0.0003655;69.9685;238.5072;132.2719;227.8737;5.3613E-5;2.58E-6;0;Orbcomm
14.71288258;0.0003633;69.9686;237.6846;131.2846;228.8612;5.5649E-5;2.71E-6;0;Orbcomm
14.71288985;0.0003589;69.9687;236.0393;129.8652;230.2809;5.9848E-5;2.97E-6;0;Orbcomm
14.71289369;0.0003564;69.9687;235.3813;129.2299;230.9163;6.4209E-5;3.24E-6;0;Orbcomm
14.71290075;0.0003517;69.9688;233.736;127.9168;232.2295;6.6746E-5;3.39E-6;0;Orbcomm
14.71290451;0.00035;69.9688;232.9133;127.056;233.0905;6.9137E-5;3.54E-6;0;Orbcomm
14.71291043;0.0003471;69.9689;231.268;125.4031;234.7439;6.832E-5;3.49E-6;0;Orbcomm
14.71292268;0.0003393;69.969;228.1421;122.1935;237.9539;7.0063E-5;3.6E-6;0;Orbcomm
14.71292961;0.0003346;69.969;225.6741;119.9746;240.1732;6.6976E-5;3.41E-6;0;Orbcomm
14.71293714;0.0003294;69.9692;223.371;117.4695;242.6785;6.6685E-5;3.39E-6;0;Orbcomm
14.71294305;0.0003243;69.9693;220.9032;114.9019;245.2463;6.0592E-5;3.01E-6;0;Orbcomm
14.7129487;0.0003203;69.9694;219.0934;113.0672;247.081;6.0626E-5;3.02E-6;0;Orbcomm
14.71295069;0.0003203;69.9694;218.5997;112.6784;247.47;6.2264E-5;3.12E-6;0;Orbcomm
14.71296065;0.0003173;69.9696;216.1318;110.0149;250.1338;6.9003E-5;3.54E-6;0;Orbcomm
14.71296788;0.0003132;69.9698;213.664;107.4742;252.6745;6.7635E-5;3.45E-6;0;Orbcomm
14.71297373;0.0003105;69.9699;211.6898;105.3359;254.8129;6.6336E-5;3.37E-6;0;Orbcomm
14.71297475;0.0003097;69.9699;211.3608;104.8237;255.3251;6.6335E-5;3.37E-6;0;Orbcomm
14.71297934;0.0003073;69.97;209.7156;102.9581;257.1907;6.3612E-5;3.2E-6;0;Orbcomm
14.71298097;0.0003064;69.97;209.3866;102.5145;257.6342;6.5485E-5;3.32E-6;0;Orbcomm
14.71298206;0.000305;69.97;208.893;102.0092;258.1395;6.4446E-5;3.25E-6;0;Orbcomm
14.71298683;0.0003029;69.9701;207.0834;99.9138;260.2348;6.0836E-5;3.03E-6;0;Orbcomm
14.71298701;0.0003024;69.9701;206.9188;99.6797;260.469;6.0359E-5;3.0E-6;0;Orbcomm
14.71298821;0.0003022;69.9701;206.5898;99.2277;260.9209;6.0672E-5;3.02E-6;0;Orbcomm
14.71299354;0.0002995;69.9702;204.6156;96.9802;263.1683;5.7633E-5;2.83E-6;0;Orbcomm
14.71299533;0.000299;69.9702;204.1221;96.3205;263.828;5.8347E-5;2.88E-6;0;Orbcomm
14.71300155;0.0002966;69.9702;202.1479;93.9502;266.1982;5.7968E-5;2.85E-6;0;Orbcomm
14.71300289;0.0002946;69.9702;201.4898;92.8779;267.2703;5.6385E-5;2.76E-6;0;Orbcomm
14.71300967;0.0002928;69.9702;199.1866;90.0607;270.0873;5.6162E-5;2.74E-6;0;Orbcomm
14.71301549;0.0002912;69.9702;197.2125;87.6366;272.5112;5.6518E-5;2.76E-6;0;Orbcomm
14.71301648;0.0002911;69.9702;196.8834;87.1935;272.9543;5.6516E-5;2.76E-6;0;Orbcomm
14.7130226;0.0002899;69.9702;195.0738;84.767;275.3805;5.8176E-5;2.87E-6;0;Orbcomm
14.71303181;0.0002874;69.9702;192.6062;81.6955;278.4516;6.2719E-5;3.15E-6;0;Orbcomm
14.71303362;0.0002882;69.9702;192.1126;80.995;279.152;6.3595E-5;3.2E-6;0;Orbcomm
14.71304142;0.0002868;69.9702;190.1385;78.534;281.6127;6.7147E-5;3.42E-6;0;Orbcomm
14.71304237;0.0002872;69.9702;189.9739;78.3434;281.8033;6.808E-5;3.48E-6;0;Orbcomm
14.71304334;0.0002878;69.9702;189.8094;78.1148;282.0319;6.8915E-5;3.53E-6;0;Orbcomm
14.71305208;0.0002865;69.9702;187.6707;75.528;284.6182;7.2144E-5;3.73E-6;0;Orbcomm
14.71305298;0.0002875;69.9702;187.5062;75.3657;284.7806;7.2739E-5;3.77E-6;0;Orbcomm
14.71305567;0.0002884;69.9701;187.0127;74.6075;285.5389;7.4358E-5;3.87E-6;0;Orbcomm
14.71306479;0.0002887;69.9701;184.7095;71.5095;288.6363;7.5131E-5;3.92E-6;0;Orbcomm
14.71307379;0.0002897;69.9701;182.5708;68.8717;291.2738;7.5628E-5;3.95E-6;0;Orbcomm
14.71308224;0.000291;69.9701;180.5966;66.3946;293.7504;7.6465E-5;4.0E-6;0;Orbcomm
14.71309281;0.0002934;69.97;178.1289;63.4144;296.7302;7.704E-5;4.03E-6;0;Orbcomm
14.71310569;0.0002956;69.9699;175.3322;59.7781;300.3657;7.9076E-5;4.16E-6;0;Orbcomm
14.71311513;0.0002978;69.9698;173.0289;56.9807;303.1624;7.7915E-5;4.09E-6;0;Orbcomm
14.71312112;0.0002995;69.9697;171.5482;55.1772;304.9654;7.6205E-5;3.98E-6;0;Orbcomm
14.71312694;0.000302;69.9695;170.232;53.5798;306.5625;7.6832E-5;4.02E-6;0;Orbcomm
14.71313013;0.0003036;69.9694;169.0803;52.332;307.81;7.1797E-5;3.71E-6;0;Orbcomm
14.71313504;0.0003048;69.9694;168.0932;51.215;308.9267;7.4979E-5;3.91E-6;0;Orbcomm
14.71314055;0.0003074;69.9692;166.6124;49.5445;310.5967;7.2755E-5;3.77E-6;0;Orbcomm
14.71314367;0.0003085;69.9692;165.7898;48.5517;311.5892;7.3338E-5;3.81E-6;0;Orbcomm
14.71314969;0.0003126;69.9691;163.4864;45.9909;314.1493;6.6406E-5;3.38E-6;0;Orbcomm
14.71315003;0.0003128;69.969;163.3219;45.7734;314.3667;6.5813E-5;3.34E-6;0;Orbcomm
14.71315818;0.0003169;69.9689;161.0185;43.243;316.8963;6.569E-5;3.33E-6;0;Orbcomm
14.71316715;0.0003209;69.9688;158.5506;40.3445;319.7937;6.6694E-5;3.39E-6;0;Orbcomm
14.71317495;0.0003259;69.9687;156.2472;37.829;322.3083;6.599E-5;3.35E-6;0;Orbcomm
14.71318085;0.0003295;69.9687;154.6019;36.1069;324.0298;6.5547E-5;3.32E-6;0;Orbcomm
14.71318366;0.0003315;69.9687;153.7793;35.3259;324.8104;6.6109E-5;3.36E-6;0;Orbcomm
14.71318949;0.0003348;69.9686;152.1339;33.8039;326.3319;6.523E-5;3.3E-6;0;Orbcomm
14.7131916;0.0003364;69.9686;151.4759;33.0478;327.0876;6.5557E-5;3.32E-6;0;Orbcomm
14.71319848;0.0003432;69.9684;149.0078;30.7269;329.4076;6.1937E-5;3.1E-6;0;Orbcomm
14.71320529;0.0003502;69.9683;146.5398;28.4214;331.7121;5.9123E-5;2.93E-6;0;Orbcomm
14.71321264;0.0003569;69.9682;144.2364;26.2113;333.9212;6.0153E-5;2.99E-6;0;Orbcomm
14.71321722;0.0003624;69.9681;142.4265;24.504;335.6276;5.8029E-5;2.86E-6;0;Orbcomm
14.71321937;0.0003646;69.9681;141.7683;24.0244;336.1071;5.9056E-5;2.92E-6;0;Orbcomm
14.71322634;0.000372;69.968;139.4648;21.9615;338.1689;5.9321E-5;2.94E-6;0;Orbcomm
14.71323397;0.0003791;69.9679;136.9969;19.9625;340.1667;6.0631E-5;3.02E-6;0;Orbcomm
14.7132426;0.0003852;69.9679;134.5288;18.2;341.9282;6.3734E-5;3.21E-6;0;Orbcomm
14.71324882;0.0003926;69.9678;132.2252;16.4259;343.7012;6.2427E-5;3.13E-6;0;Orbcomm
14.71325289;0.0003972;69.9678;130.4152;15.2603;344.8661;5.909E-5;2.92E-6;0;Orbcomm
14.71325347;0.0004001;69.9678;129.757;14.5592;345.5667;5.7051E-5;2.8E-6;0;Orbcomm
14.71325787;0.0004058;69.9679;127.9473;13.3393;346.7859;5.5285E-5;2.69E-6;0;Orbcomm
14.7132586;0.0004084;69.9678;127.2891;12.7276;347.3972;5.3286E-5;2.56E-6;0;Orbcomm
14.71326342;0.0004141;69.9679;125.4791;11.4149;348.7089;5.2846E-5;2.54E-6;0;Orbcomm
14.71326485;0.000418;69.9679;124.821;10.988;349.1355;5.1911E-5;2.48E-6;0;Orbcomm
14.71327075;0.000425;69.9679;122.5174;9.5673;350.5552;5.0679E-5;2.4E-6;0;Orbcomm
14.71327712;0.0004324;69.968;120.2139;8.0606;352.0607;5.0603E-5;2.4E-6;0;Orbcomm
14.71328388;0.0004398;69.9681;118.2394;7.0347;353.0859;5.3175E-5;2.56E-6;0;Orbcomm
14.71328837;0.000446;69.9681;116.4295;6.0491;354.0707;5.058E-5;2.4E-6;0;Orbcomm
14.71329127;0.0004496;69.9681;115.2777;4.9645;355.1544;5.038E-5;2.38E-6;0;Orbcomm
14.71329781;0.0004581;69.9682;112.8095;3.3672;356.7503;4.9924E-5;2.36E-6;0;Orbcomm
14.71330729;0.0004722;69.9684;108.696;0.9257;359.1896;4.6776E-5;2.16E-6;0;Orbcomm
14.71330958;0.0004749;69.9684;108.0378;0.606;359.509;4.8604E-5;2.27E-6;0;Orbcomm
14.71331587;0.0004816;69.9685;105.8988;359.3558;0.7579;5.1138E-5;2.43E-6;0;Orbcomm
14.71332;0.0004861;69.9686;104.418;358.5304;1.5826;5.1232E-5;2.44E-6;0;Orbcomm
14.71332318;0.0004894;69.9687;103.4307;358.0132;2.0992;5.3252E-5;2.56E-6;0;Orbcomm
14.71333187;0.0004938;69.9688;101.95;357.0962;3.0153;6.3816E-5;3.22E-6;0;Orbcomm
14.71333779;0.0004971;69.9688;100.9628;356.7764;3.3348;7.1425E-5;3.69E-6;0;Orbcomm
14.71333941;0.0005012;69.9689;99.6465;356.1538;3.9567;6.2898E-5;3.16E-6;0;Orbcomm
14.71334227;0.0005055;69.969;98.4948;355.5262;4.5837;6.1498E-5;3.07E-6;0;Orbcomm
14.71334696;0.0005088;69.9691;97.1785;354.9472;5.162;6.1334E-5;3.06E-6;0;Orbcomm
14.71335107;0.0005113;69.9692;96.1913;354.3793;5.7293;6.4595E-5;3.26E-6;0;Orbcomm
14.7133619;0.0005177;69.9693;94.0524;353.384;6.7236;7.1807E-5;3.71E-6;0;Orbcomm
14.71336289;0.0005181;69.9693;93.8878;353.3405;6.767;7.2477E-5;3.75E-6;0;Orbcomm
14.71337011;0.0005249;69.9695;91.5844;352.153;7.9531;6.6797E-5;3.4E-6;0;Orbcomm
14.71337556;0.0005293;69.9696;89.9391;351.2299;8.8752;6.2351E-5;3.13E-6;0;Orbcomm
14.71338347;0.0005298;69.9696;88.952;350.911;9.1938;7.2616E-5;3.76E-6;0;Orbcomm
14.71338605;0.0005341;69.9697;87.4712;350.1765;9.9275;6.2541E-5;3.14E-6;0;Orbcomm
14.71339428;0.0005426;69.9698;85.1677;349.0384;11.0642;6.0547E-5;3.01E-6;0;Orbcomm
14.71339483;0.0005432;69.9698;85.0032;348.9411;11.1614;6.0386E-5;3.0E-6;0;Orbcomm
14.71340426;0.0005507;69.97;82.6997;347.9689;12.1324;6.1624E-5;3.08E-6;0;Orbcomm
14.71340594;0.0005522;69.97;82.2061;347.6949;12.406;6.2106E-5;3.11E-6;0;Orbcomm
14.71340989;0.0005549;69.97;81.548;347.4068;12.6937;6.5893E-5;3.35E-6;0;Orbcomm
14.71341284;0.000558;69.9701;80.2318;346.8932;13.2066;6.0845E-5;3.03E-6;0;Orbcomm
14.71341491;0.0005597;69.9701;79.5737;346.5699;13.5296;6.1455E-5;3.07E-6;0;Orbcomm
14.71342037;0.0005645;69.9702;77.7639;345.7426;14.3558;5.9255E-5;2.93E-6;0;Orbcomm
14.71342348;0.0005675;69.9703;76.7767;345.299;14.7989;5.944E-5;2.95E-6;0;Orbcomm
14.71342799;0.0005706;69.9703;75.4606;344.6774;15.4198;5.9638E-5;2.96E-6;0;Orbcomm
14.71343505;0.0005776;69.9705;73.1572;343.6272;16.4685;5.8943E-5;2.91E-6;0;Orbcomm
14.7134351;0.0005777;69.9705;72.9927;343.5958;16.4998;5.8042E-5;2.86E-6;0;Orbcomm
14.71344226;0.0005838;69.9706;70.6894;342.5664;17.528;5.7456E-5;2.82E-6;0;Orbcomm
14.71344271;0.0005842;69.9706;70.5249;342.4638;17.6304;5.7467E-5;2.82E-6;0;Orbcomm
14.7134492;0.0005897;69.9707;68.2216;341.4333;18.6595;5.5558E-5;2.71E-6;0;Orbcomm
14.71344963;0.0005902;69.9707;68.0571;341.3393;18.7534;5.5608E-5;2.71E-6;0;Orbcomm
14.71345565;0.0005962;69.9707;65.7538;340.3241;19.7673;5.2665E-5;2.53E-6;0;Orbcomm
14.71345716;0.0005975;69.9708;65.0957;340.0453;20.0457;5.2113E-5;2.49E-6;0;Orbcomm
14.71346271;0.0006018;69.9708;63.286;339.2495;20.8404;5.2052E-5;2.49E-6;0;Orbcomm
14.71346588;0.0006038;69.9708;62.6279;338.9914;21.0982;5.5975E-5;2.73E-6;0;Orbcomm
